HAWK-2C                 
1 47502U 21006CT  26068.67595434  .00008129  00000+0  25493-3 0  9997
2 47502  97.2417 114.9961 0006943 184.0877 176.0310 15.33286436284247
STARLINK-2535           
1 48295U 21036V   26068.27564317 -.00000403  00000+0 -14738-5 0  9993
2 48295  53.1607  77.4642 0001518  97.2274 262.8900 15.30191983268348
